AL MUNTHER              
1 63240U 25052AG  26068.64540749  .00017933  00000+0  65015-3 0  9992
2 63240  97.4001 323.9152 0008027 130.7043 229.4895 15.28381521 54798
STARLINK-35839          
1 67169U 25303G   26068.05679306  .00027896  00000+0  10185-2 0  9998
2 67169  43.0022 314.7014 0003414 257.7968 102.2502 15.27606005 12634
